COSMOS 2433 (720)       
1 32275U 07052A   26194.19405126 -.00000064  00000+0  00000+0 0  9992
2 32275  65.5610 315.0591 0003428 203.4008 156.5874  2.13104146145617
COSMOS 2432 (719)       
1 32276U 07052B   26194.33467700 -.00000064  00000+0  00000+0 0  9995
2 32276  65.5769 315.1826 0007406 322.4581  89.1987  2.13103099145648
COSMOS 2434 (721)       
1 32393U 07065A   26194.44443271  .00000077  00000+0  00000+0 0  9991
2 32393  64.3200 191.0300 0001273 325.9955 115.7865  2.13101230144333
COSMOS 2436 (723)       
1 32395U 07065C   26194.36545685  .00000078  00000+0  00000+0 0  9997
2 32395  64.3286 191.1050 0017328 353.5290 159.8648  2.13099954144280
COSMOS 2456 (730)       
1 36111U 09070A   26194.36769985 -.00000012  00000+0  00000+0 0  9995
2 36111  65.0264  70.0797 0003648 340.5748 200.6348  2.13103670128983
COSMOS 2457 (733)       
1 36112U 09070B   26194.19579927 -.00000012  00000+0  00000+0 0  9992
2 36112  65.0120  69.9289 0004075 121.6619  54.8410  2.13101172128982
COSMOS 2460 (732)       
1 36402U 10007C   26194.43567464 -.00000063  00000+0  00000+0 0  9992
2 36402  65.4040 313.5791 0001816 142.5273 219.9555  2.13101648127298
COSMOS 2476 (744)       
1 37867U 11064A   26194.44519653 -.00000011  00000+0  00000+0 0  9993
2 37867  65.2845  71.9856 0022141 236.0287 272.9569  2.13103770114322
COSMOS 2477 (745)       
1 37868U 11064B   26194.25139513 -.00000011  00000+0  00000+0 0  9996
2 37868  65.2909  72.0718 0019159 236.9309 303.6393  2.13102972114311
COSMOS 2475 (743)       
1 37869U 11064C   26194.29456664 -.00000011  00000+0  00000+0 0  9990
2 37869  65.2977  72.0922 0024844 251.2565 277.4451  2.13101813114322
COSMOS 2485 (747)       
1 39155U 13019A   26194.18855227 -.00000011  00000+0  00000+0 0  9998
2 39155  65.4339  72.7327 0022643 231.1311 128.7381  2.13103251102834
COSMOS 2492 (754)       
1 39620U 14012A   26193.67812899 -.00000063  00000+0  00000+0 0  9997
2 39620  65.2814 313.0702 0010307 318.3829  41.5439  2.13103273 95786
COSMOS 2500 (755)       
1 40001U 14032A   26194.31681669 -.00000062  00000+0  00000+0 0  9994
2 40001  65.2160 312.7937 0008198 189.8458 170.1451  2.13105887 94016
COSMOS 2501 (702K)      
1 40315U 14075A   26193.17141326  .00000094  00000+0  00000+0 0  9997
2 40315  63.6181 189.5071 0022686 212.6526 147.2271  2.13101266 90385
COSMOS 2514 (751)       
1 41330U 16008A   26193.15595653 -.00000062  00000+0  00000+0 0  9993
2 41330  65.0052 312.1498 0012231 200.8656 159.0907  2.13102528 81155
COSMOS 2522 (752)       
1 42939U 17055A   26191.11660740  .00000122  00000+0  00000+0 0  9992
2 42939  64.0805 191.1038 0010910 240.8947 119.0275  2.13101919 68466
COSMOS 2527 (756)       
1 43508U 18053A   26194.36338399 -.00000010  00000+0  00000+0 0  9993
2 43508  65.5917  73.0349 0006512 230.5775 129.4370  2.13102148 62831
COSMOS 2529 (757)       
1 43687U 18086A   26192.11333993  .00000113  00000+0  00000+0 0  9996
2 43687  64.2969 191.7864 0012111 256.4030 103.4921  2.13101972 59794
COSMOS 2534 (758)       
1 44299U 19030A   26194.37380846  .00000078  00000+0  00000+0 0  9995
2 44299  64.3706 191.7347 0013548 275.0928 153.5502  2.13102101 55486
COSMOS 2544 (759)       
1 44850U 19088A   26192.43092179 -.00000019  00000+0  00000+0 0  9991
2 44850  65.5782  72.9223 0012329 255.3827 104.5453  2.13103002 51235
COSMOS 2545 (760)       
1 45358U 20018A   26191.68733521 -.00000061  00000+0  00000+0 0  9996
2 45358  64.3399 311.5938 0009429 230.3157 129.6087  2.13102541 49168
COSMOS 2547 (705K)      
1 46805U 20075A   26194.22336713  .00000081  00000+0  00000+0 0  9993
2 46805  64.6015 191.6065 0009458 240.0079 119.9159  2.13099927 44468
COSMOS 2557 (706K)      
1 52984U 22075A   26194.38749594 -.00000064  00000+0  00000+0 0  9994
2 52984  64.2818 313.5628 0010790 271.6938  88.1892  2.13102257 31272
COSMOS 2559 (707K)      
1 54031U 22130A   26193.73793028 -.00000064  00000+0  00000+0 0  9990
2 54031  64.2546 313.6678 0013055 180.7672 179.2365  2.13101618 29233
COSMOS 2564 (761)       
1 54377U 22161A   26194.05033981  .00000084  00000+0  00000+0 0  9999
2 54377  64.7437 191.8531 0012248 225.0211 134.8990  2.13101967 28180
COSMOS 2569 (703K)      
1 57517U 23114A   26194.06264716 -.00000012  00000+0  00000+0 0  9992
2 57517  65.3169  71.7482 0009746 296.0877  63.8841  2.13103705 22816
COSMOS 2584 (704K)      
1 63130U 25042A   26189.25686521 -.00000024  00000+0  00000+0 0  9992
2 63130  65.0959  72.0857 0005748 218.1439 141.8762  2.13103813 10495
COSMOS 2596 (708K)      
1 65590U 25206B   26194.33478170 -.00000064  00000+0  00000+0 0  9994
2 65590  64.6178 314.0753 0011126 307.7533 103.9433  2.13100618  6473
